PROBA-1                 
1 26958U 01049B   26167.27376993  .00001881  00000+0  12413-3 0  9993
2 26958  97.9596 175.7742 0056400 124.8381 235.8169 15.07493377343484
CUTE-1 (CO-55)          
1 27844U 03031E   26167.26444773  .00000236  00000+0  12107-3 0  9995
2 27844  98.6736 175.8349 0009467 180.6624 179.4544 14.24335232191549
CUBESAT XI-IV (CO-57)   
1 27848U 03031J   26166.97130938  .00000200  00000+0  10702-3 0  9991
2 27848  98.6765 175.2591 0008944 200.7616 159.3200 14.23620242191208
APRIZESAT 4             
1 35684U 09041D   26167.17813914  .00000579  00000+0  75794-4 0  9992
2 35684  98.1413 242.4785 0042465 326.3943  33.4578 14.83878253911210
APRIZESAT 3             
1 35686U 09041F   26167.22959799  .00001520  00000+0  13532-3 0  9990
2 35686  98.2059 320.4075 0062776  70.8400 289.9601 14.96238642916232
PROBA-2                 
1 36037U 09059B   26167.07128874  .00000148  00000+0  45042-4 0  9992
2 36037  98.2449 350.4395 0011983 285.9683  74.0194 14.54862034881367
APRIZESAT 5             
1 37792U 11044E   26167.26409287  .00000971  00000+0  12973-3 0  9999
2 37792  98.2453 100.2783 0052416   7.3044 352.8919 14.81074351798654
APRIZESAT 6             
1 37793U 11044F   26166.99546477  .00000651  00000+0  98906-4 0  9998
2 37793  98.2365  77.4707 0044496  89.7335 333.6407 14.76914317796975
PROBA-V                 
1 39159U 13021A   26167.20545367  .00000046  00000+0  38241-4 0  9999
2 39159  98.3583 145.8605 0005098 125.7196 234.4459 14.23596789680972
APRIZESAT 7             
1 39416U 13066A   26167.14767777  .00001072  00000+0  11149-3 0  9995
2 39416  97.7709 120.3825 0034916 212.7929 147.1123 14.91561995681071
APRIZESAT 8             
1 39425U 13066K   26167.13253038  .00000824  00000+0  95187-4 0  9993
2 39425  97.8220 114.6150 0044467 290.1674  69.4762 14.87651062679517
BUGSAT-1 (TITA)         
1 40014U 14033E   26167.24395595  .00005284  00000+0  27971-3 0  9991
2 40014  98.0436 259.7370 0027934 181.4201 178.6956 15.15579418655695
SAUDISAT 4              
1 40016U 14033G   26167.30730266  .00000568  00000+0  81373-4 0  9995
2 40016  97.7581 313.4724 0046176  76.7702 283.8655 14.79543832645948
APRIZESAT 9             
1 40018U 14033J   26167.32523743  .00000594  00000+0  94736-4 0  9995
2 40018  97.9059 300.5449 0065622 201.9666 157.8728 14.74213513643439
APRIZESAT 10            
1 40019U 14033K   26167.31032230  .00000355  00000+0  63926-4 0  9993
2 40019  97.9648 294.2893 0077397 276.6969  82.5434 14.70881790642120
TECHDEMOSAT-1 (TDS-1)   
1 40076U 14037H   26167.23280075  .00006228  00000+0  35427-3 0  9992
2 40076  98.3811 159.3511 0004449 270.2647  89.8072 15.13281865648083
TECHNOSAT               
1 42829U 17042E   26167.31842384  .00003464  00000+0  24768-3 0  9990
2 42829  97.4281 325.0087 0018889  96.9439 263.3938 15.04956334486571
FLYING LAPTOP           
1 42831U 17042G   26167.31897397  .00002299  00000+0  18322-3 0  9991
2 42831  97.4680 322.8843 0019538 124.5322 235.7751 15.01139426486324
HAWK-A                  
1 43765U 18099H   26167.10111526  .00005398  00000+0  21837-3 0  9999
2 43765  97.3913 219.3512 0033127 289.9439  69.8231 15.24632636412938
HAWK-B                  
1 43794U 18099AN  26167.05565029  .00004718  00000+0  20226-3 0  9992
2 43794  97.3963 218.7238 0030570 309.1246  50.7273 15.22815777412867
HAWK-C                  
1 43799U 18099AT  26167.14559793  .00006065  00000+0  21937-3 0  9995
2 43799  97.3889 220.3022 0038783 289.6441  70.0615 15.28091165413759
SALSAT                  
1 46495U 20068K   26166.96813813  .00006820  00000+0  23912-3 0  9999
2 46495  97.8844 169.9584 0008114 313.3675  46.6887 15.29785416315178
HAWK-2C                 
1 47502U 21006CT  26167.10901465  .00005486  00000+0  16560-3 0  9998
2 47502  97.2274 211.4403 0006576 189.5044 170.6077 15.34652777299332
HAWK-2A                 
1 47505U 21006CW  26167.11151761  .00005420  00000+0  16358-3 0  9991
2 47505  97.2317 212.1200 0005988 192.6997 167.4096 15.34667448299330
HAWK-2B                 
1 47508U 21006CZ  26167.10711425  .00005942  00000+0  17861-3 0  9991
2 47508  97.2187 210.4491 0006576 190.9114 169.1988 15.34754544299330
HAWK-3B                 
1 48931U 21059BE  26166.79410914  .00037015  00000+0  31563-3 0  9994
2 48931  97.6654   3.3703 0003294 337.9580  22.1539 15.69456462277638
HAWK-3C                 
1 48948U 21059BX  26167.30384931  .00037185  00000+0  31658-3 0  9992
2 48948  97.6773   9.6127 0003586 337.0302  23.0798 15.69492751277711
HAWK-3A                 
1 48957U 21059CG  26166.53863403  .00039884  00000+0  33997-3 0  9998
2 48957  97.6715   5.9805 0003770 342.6233  17.4898 15.69448522277590
HAWK-5C                 
1 52754U 22057Y   26166.94759587  .00015482  00000+0  26481-3 0  9997
2 52754  97.6593 326.5340 0005098  86.7842 273.3993 15.51355304226158
HAWK-5B                 
1 52756U 22057AA  26166.94744548  .00015600  00000+0  26676-3 0  9998
2 52756  97.6603 324.8830 0005746  79.6792 280.5107 15.51356518226157
